STARLINK-35794          
1 67085U 25298L   26013.19262332  .00033910  00000+0  77336-3 0  9996
2 67085  70.0005 162.4394 0003087 268.9207  91.1621 15.42749379  4703
STARLINK-35841          
1 67086U 25298M   26011.39289774  .00047450  00000+0  78226-3 0  9999
2 67086  70.0000 166.9856 0001612 234.0987 126.0050 15.52059546  4437
STARLINK-35842          
1 67087U 25298N   26012.84716988  .00046181  00000+0  10509-2 0  9992
2 67087  69.9994 163.6474 0003595 279.9542  80.1234 15.42731683  4649
STARLINK-35882          
1 67088U 25298P   26013.16672453  .00042653  00000+0  97190-3 0  9999
2 67088  69.9993 162.2148 0003684 296.2389 177.0073 15.42713303  6022
STARLINK-35763          
1 67089U 25298Q   26013.11355689  .00040113  00000+0  91412-3 0  9994
2 67089  70.0004 162.5602 0002866 275.4960  84.5894 15.42729318  4699
STARLINK-36060          
1 67090U 25298R   26013.00002314 -.00022158  00000+0 -50362-3 0  9998
2 67090  69.9989 162.7631 0003671 276.5144 263.2165 15.42733349  5939
STARLINK-36097          
1 67091U 25298S   26012.84195085  .00046213  00000+0  10520-2 0  9995
2 67091  70.0005 163.2150 0003197 284.6101  75.4726 15.42723215  4655
STARLINK-35792          
1 67092U 25298T   26012.84591230  .00056539  00000+0  12844-2 0  9991
2 67092  70.0007 163.2301 0003527 268.9818  91.0960 15.42725897  4655
STARLINK-35784          
1 67093U 25298U   26012.86229786  .00033373  00000+0  76171-3 0  9993
2 67093  69.9995 163.2898 0003692 275.4336  84.6424 15.42728517  4656
STARLINK-36202          
1 67094U 25298V   26013.11752986  .00021925  00000+0  50280-3 0  9999
2 67094  70.0004 162.5750 0003375 273.4178  86.6618 15.42701134  4697
STARLINK-36227          
1 67095U 25298W   26013.00002314 -.00027464  00000+0 -62619-3 0  9996
2 67095  69.9990 162.7380 0003665 274.3643 287.4492 15.42698620  5933
STARLINK-36228          
1 67096U 25298X   26013.16672453 -.00928253  00000+0 -22638-1 0  9992
2 67096  69.9991 162.1349 0003645 274.2497 266.8101 15.43295921  5967
