CCSDS_OMM_VERS = 2.0
CREATION_DATE  = 
ORIGINATOR     = 

OBJECT_NAME    = STARLINK-35794
OBJECT_ID      = 2025-298L
CENTER_NAME    = EARTH
REF_FRAME      = TEME
TIME_SYSTEM    = UTC
MEAN_ELEMENT_THEORY = SGP/SGP4

EPOCH          = 2026-01-13T04:37:22.654848
MEAN_MOTION    = 15.42749379
ECCENTRICITY   = .0003087
INCLINATION    = 70.0005
RA_OF_ASC_NODE = 162.4394
ARG_OF_PERICENTER = 268.9207
MEAN_ANOMALY   = 91.1621

EPHEMERIS_TYPE = 0
CLASSIFICATION_TYPE = U
NORAD_CAT_ID   = 67085
ELEMENT_SET_NO = 999
REV_AT_EPOCH   = 470
BSTAR          = .77336E-3
MEAN_MOTION_DOT = .3391E-3
MEAN_MOTION_DDOT = 0

CCSDS_OMM_VERS = 2.0
CREATION_DATE  = 
ORIGINATOR     = 

OBJECT_NAME    = STARLINK-35841
OBJECT_ID      = 2025-298M
CENTER_NAME    = EARTH
REF_FRAME      = TEME
TIME_SYSTEM    = UTC
MEAN_ELEMENT_THEORY = SGP/SGP4

EPOCH          = 2026-01-11T09:25:46.364736
MEAN_MOTION    = 15.52059546
ECCENTRICITY   = .0001612
INCLINATION    = 70.0000
RA_OF_ASC_NODE = 166.9856
ARG_OF_PERICENTER = 234.0987
MEAN_ANOMALY   = 126.0050

EPHEMERIS_TYPE = 0
CLASSIFICATION_TYPE = U
NORAD_CAT_ID   = 67086
ELEMENT_SET_NO = 999
REV_AT_EPOCH   = 443
BSTAR          = .78226181E-3
MEAN_MOTION_DOT = .4745E-3
MEAN_MOTION_DDOT = 0

CCSDS_OMM_VERS = 2.0
CREATION_DATE  = 
ORIGINATOR     = 

OBJECT_NAME    = STARLINK-35842
OBJECT_ID      = 2025-298N
CENTER_NAME    = EARTH
REF_FRAME      = TEME
TIME_SYSTEM    = UTC
MEAN_ELEMENT_THEORY = SGP/SGP4

EPOCH          = 2026-01-12T20:19:55.477632
MEAN_MOTION    = 15.42731683
ECCENTRICITY   = .00035957
INCLINATION    = 69.9994
RA_OF_ASC_NODE = 163.6474
ARG_OF_PERICENTER = 279.9542
MEAN_ANOMALY   = 80.1234

EPHEMERIS_TYPE = 0
CLASSIFICATION_TYPE = U
NORAD_CAT_ID   = 67087
ELEMENT_SET_NO = 999
REV_AT_EPOCH   = 464
BSTAR          = .10509149E-2
MEAN_MOTION_DOT = .46181E-3
MEAN_MOTION_DDOT = 0

CCSDS_OMM_VERS = 2.0
CREATION_DATE  = 
ORIGINATOR     = 

OBJECT_NAME    = STARLINK-35882
OBJECT_ID      = 2025-298P
CENTER_NAME    = EARTH
REF_FRAME      = TEME
TIME_SYSTEM    = UTC
MEAN_ELEMENT_THEORY = SGP/SGP4

EPOCH          = 2026-01-13T04:00:04.999392
MEAN_MOTION    = 15.42713303
ECCENTRICITY   = .0003684
INCLINATION    = 69.9993
RA_OF_ASC_NODE = 162.2148
ARG_OF_PERICENTER = 296.2389
MEAN_ANOMALY   = 177.0073

EPHEMERIS_TYPE = 0
CLASSIFICATION_TYPE = U
NORAD_CAT_ID   = 67088
ELEMENT_SET_NO = 999
REV_AT_EPOCH   = 602
BSTAR          = .9719E-3
MEAN_MOTION_DOT = .42653E-3
MEAN_MOTION_DDOT = 0

CCSDS_OMM_VERS = 2.0
CREATION_DATE  = 
ORIGINATOR     = 

OBJECT_NAME    = STARLINK-35763
OBJECT_ID      = 2025-298Q
CENTER_NAME    = EARTH
REF_FRAME      = TEME
TIME_SYSTEM    = UTC
MEAN_ELEMENT_THEORY = SGP/SGP4

EPOCH          = 2026-01-13T02:43:31.315296
MEAN_MOTION    = 15.42729318
ECCENTRICITY   = .0002866
INCLINATION    = 70.0004
RA_OF_ASC_NODE = 162.5602
ARG_OF_PERICENTER = 275.4960
MEAN_ANOMALY   = 84.5894

EPHEMERIS_TYPE = 0
CLASSIFICATION_TYPE = U
NORAD_CAT_ID   = 67089
ELEMENT_SET_NO = 999
REV_AT_EPOCH   = 469
BSTAR          = .91412E-3
MEAN_MOTION_DOT = .40113E-3
MEAN_MOTION_DDOT = 0

CCSDS_OMM_VERS = 2.0
CREATION_DATE  = 
ORIGINATOR     = 

OBJECT_NAME    = STARLINK-36060
OBJECT_ID      = 2025-298R
CENTER_NAME    = EARTH
REF_FRAME      = TEME
TIME_SYSTEM    = UTC
MEAN_ELEMENT_THEORY = SGP/SGP4

EPOCH          = 2026-01-13T00:00:01.999296
MEAN_MOTION    = 15.42733349
ECCENTRICITY   = .0003671
INCLINATION    = 69.9989
RA_OF_ASC_NODE = 162.7631
ARG_OF_PERICENTER = 276.5144
MEAN_ANOMALY   = 263.2165

EPHEMERIS_TYPE = 0
CLASSIFICATION_TYPE = U
NORAD_CAT_ID   = 67090
ELEMENT_SET_NO = 999
REV_AT_EPOCH   = 593
BSTAR          = -.50362E-3
MEAN_MOTION_DOT = -.22158E-3
MEAN_MOTION_DDOT = 0

CCSDS_OMM_VERS = 2.0
CREATION_DATE  = 
ORIGINATOR     = 

OBJECT_NAME    = STARLINK-36097
OBJECT_ID      = 2025-298S
CENTER_NAME    = EARTH
REF_FRAME      = TEME
TIME_SYSTEM    = UTC
MEAN_ELEMENT_THEORY = SGP/SGP4

EPOCH          = 2026-01-12T20:12:24.553440
MEAN_MOTION    = 15.42723215
ECCENTRICITY   = .00031976
INCLINATION    = 70.0005
RA_OF_ASC_NODE = 163.2150
ARG_OF_PERICENTER = 284.6101
MEAN_ANOMALY   = 75.4726

EPHEMERIS_TYPE = 0
CLASSIFICATION_TYPE = U
NORAD_CAT_ID   = 67091
ELEMENT_SET_NO = 999
REV_AT_EPOCH   = 465
BSTAR          = .10519738E-2
MEAN_MOTION_DOT = .46213E-3
MEAN_MOTION_DDOT = 0

CCSDS_OMM_VERS = 2.0
CREATION_DATE  = 
ORIGINATOR     = 

OBJECT_NAME    = STARLINK-35792
OBJECT_ID      = 2025-298T
CENTER_NAME    = EARTH
REF_FRAME      = TEME
TIME_SYSTEM    = UTC
MEAN_ELEMENT_THEORY = SGP/SGP4

EPOCH          = 2026-01-12T20:18:06.822720
MEAN_MOTION    = 15.42725897
ECCENTRICITY   = .0003527
INCLINATION    = 70.0007
RA_OF_ASC_NODE = 163.2301
ARG_OF_PERICENTER = 268.9818
MEAN_ANOMALY   = 91.0960

EPHEMERIS_TYPE = 0
CLASSIFICATION_TYPE = U
NORAD_CAT_ID   = 67092
ELEMENT_SET_NO = 999
REV_AT_EPOCH   = 465
BSTAR          = .12843967E-2
MEAN_MOTION_DOT = .56539E-3
MEAN_MOTION_DDOT = 0

CCSDS_OMM_VERS = 2.0
CREATION_DATE  = 
ORIGINATOR     = 

OBJECT_NAME    = STARLINK-35784
OBJECT_ID      = 2025-298U
CENTER_NAME    = EARTH
REF_FRAME      = TEME
TIME_SYSTEM    = UTC
MEAN_ELEMENT_THEORY = SGP/SGP4

EPOCH          = 2026-01-12T20:41:42.535104
MEAN_MOTION    = 15.42728517
ECCENTRICITY   = .0003692
INCLINATION    = 69.9995
RA_OF_ASC_NODE = 163.2898
ARG_OF_PERICENTER = 275.4336
MEAN_ANOMALY   = 84.6424

EPHEMERIS_TYPE = 0
CLASSIFICATION_TYPE = U
NORAD_CAT_ID   = 67093
ELEMENT_SET_NO = 999
REV_AT_EPOCH   = 465
BSTAR          = .76171E-3
MEAN_MOTION_DOT = .33373E-3
MEAN_MOTION_DDOT = 0

CCSDS_OMM_VERS = 2.0
CREATION_DATE  = 
ORIGINATOR     = 

OBJECT_NAME    = STARLINK-36202
OBJECT_ID      = 2025-298V
CENTER_NAME    = EARTH
REF_FRAME      = TEME
TIME_SYSTEM    = UTC
MEAN_ELEMENT_THEORY = SGP/SGP4

EPOCH          = 2026-01-13T02:49:14.579904
MEAN_MOTION    = 15.42701134
ECCENTRICITY   = .0003375
INCLINATION    = 70.0004
RA_OF_ASC_NODE = 162.5750
ARG_OF_PERICENTER = 273.4178
MEAN_ANOMALY   = 86.6618

EPHEMERIS_TYPE = 0
CLASSIFICATION_TYPE = U
NORAD_CAT_ID   = 67094
ELEMENT_SET_NO = 999
REV_AT_EPOCH   = 469
BSTAR          = .5028E-3
MEAN_MOTION_DOT = .21925E-3
MEAN_MOTION_DDOT = 0

CCSDS_OMM_VERS = 2.0
CREATION_DATE  = 
ORIGINATOR     = 

OBJECT_NAME    = STARLINK-36227
OBJECT_ID      = 2025-298W
CENTER_NAME    = EARTH
REF_FRAME      = TEME
TIME_SYSTEM    = UTC
MEAN_ELEMENT_THEORY = SGP/SGP4

EPOCH          = 2026-01-13T00:00:01.999296
MEAN_MOTION    = 15.42698620
ECCENTRICITY   = .0003665
INCLINATION    = 69.9990
RA_OF_ASC_NODE = 162.7380
ARG_OF_PERICENTER = 274.3643
MEAN_ANOMALY   = 287.4492

EPHEMERIS_TYPE = 0
CLASSIFICATION_TYPE = U
NORAD_CAT_ID   = 67095
ELEMENT_SET_NO = 999
REV_AT_EPOCH   = 593
BSTAR          = -.62619E-3
MEAN_MOTION_DOT = -.27464E-3
MEAN_MOTION_DDOT = 0

CCSDS_OMM_VERS = 2.0
CREATION_DATE  = 
ORIGINATOR     = 

OBJECT_NAME    = STARLINK-36228
OBJECT_ID      = 2025-298X
CENTER_NAME    = EARTH
REF_FRAME      = TEME
TIME_SYSTEM    = UTC
MEAN_ELEMENT_THEORY = SGP/SGP4

EPOCH          = 2026-01-13T04:00:04.999392
MEAN_MOTION    = 15.43295921
ECCENTRICITY   = .0003645
INCLINATION    = 69.9991
RA_OF_ASC_NODE = 162.1349
ARG_OF_PERICENTER = 274.2497
MEAN_ANOMALY   = 266.8101

EPHEMERIS_TYPE = 0
CLASSIFICATION_TYPE = U
NORAD_CAT_ID   = 67096
ELEMENT_SET_NO = 999
REV_AT_EPOCH   = 596
BSTAR          = -.22638E-1
MEAN_MOTION_DOT = -.928253E-2
MEAN_MOTION_DDOT = 0

